COSMOS 2251             
1 22675U 93036A   20322.83431500 -.00000004  00000-0  80712-5 0  9994
2 22675  74.0392  95.3863 0026175 270.5199  89.2953 14.32562556432685